{"type": "FeatureCollection", "features": [ {"type": "Feature", "properties": {"norad_id": 36258, "name": "FENGYUN 1C DEB", "group": "fengyun-1c-debris", "lat": 0.4422032313733749, "lon": -154.68129359771396, "alt_km": 622.5261984609424, "timestamp": "2025-12-20T18:51:32.002391+00:00", "meta": {"OBJECT_NAME": "FENGYUN 1C DEB", "OBJECT_ID": "1999-025DWK", "EPOCH": "2025-12-18T07:26:59.951040", "MEAN_MOTION": 14.74877851, "ECCENTRICITY": 0.01735744, "INCLINATION": 99.0864, "RA_OF_ASC_NODE": 22.4711, "ARG_OF_PERICENTER": 108.4242, "MEAN_ANOMALY": 253.592, "EPHEMERIS_TYPE": 0, "CLASSIFICATION_TYPE": "U", "NORAD_CAT_ID": 36258, "ELEMENT_SET_NO": 999, "REV_AT_EPOCH": 90904, "BSTAR": 0.00023742116, "MEAN_MOTION_DOT": 1.958e-05, "MEAN_MOTION_DDOT": 0}, "tle": {"line1": "1 36258U 99025DWK 25352.31041610  .00001958  00000+0  23742-3 0  9995", "line2": "2 36258  99.0864  22.4711 0173574 108.4242 253.5920 14.74877851909047"}}, "geometry": {"type": "Point", "coordinates": [-154.68129359771396, 0.4422032313733749]}}, {"type": "Feature", "properties": {"norad_id": 36260, "name": "FENGYUN 1C DEB", "group": "fengyun-1c-debris", "lat": 47.07629075200013, "lon": -12.69891867761232, "alt_km": 847.7782068694441, "timestamp": "2025-12-20T18:51:32.002401+00:00", "meta": {"OBJECT_NAME": "FENGYUN 1C DEB", "OBJECT_ID": "1999-025DWM", "EPOCH": "2025-12-19T18:52:50.261376", "MEAN_MOTION": 14.15377772, "ECCENTRICITY": 0.00151871, "INCLINATION": 98.6611, "RA_OF_ASC_NODE": 355.7636, "ARG_OF_PERICENTER": 228.05, "MEAN_ANOMALY": 131.9381, "EPHEMERIS_TYPE": 0, "CLASSIFICATION_TYPE": "U", "NORAD_CAT_ID": 36260, "ELEMENT_SET_NO": 999, "REV_AT_EPOCH": 87908, "BSTAR": 0.00013548076, "MEAN_MOTION_DOT": 2.22e-06, "MEAN_MOTION_DDOT": 0}, "tle": {"line1": "1 36260U 99025DWM 25353.78669284  .00000222  00000+0  13548-3 0  9999", "line2": "2 36260  98.6611 355.7636 0015187 228.0500 131.9381 14.15377772879086"}}, "geometry": {"type": "Point", "coordinates": [-12.69891867761232, 47.07629075200013]}}, {"type": "Feature", "properties": {"norad_id": 36261, "name": "FENGYUN 1C DEB", "group": "fengyun-1c-debris", "lat": -54.30388947598575, "lon": -95.6882335199002, "alt_km": 1189.038306096245, "timestamp": "2025-12-20T18:51:32.002412+00:00", "meta": {"OBJECT_NAME": "FENGYUN 1C DEB", "OBJECT_ID": "1999-025DWN", "EPOCH": "2025-12-19T11:00:43.184160", "MEAN_MOTION": 13.45486204, "ECCENTRICITY": 0.0355696, "INCLINATION": 101.3649, "RA_OF_ASC_NODE": 246.5536, "ARG_OF_PERICENTER": 59.662, "MEAN_ANOMALY": 303.9183, "EPHEMERIS_TYPE": 0, "CLASSIFICATION_TYPE": "U", "NORAD_CAT_ID": 36261, "ELEMENT_SET_NO": 999, "REV_AT_EPOCH": 84523, "BSTAR": 0.00049964, "MEAN_MOTION_DOT": 3.8e-06, "MEAN_MOTION_DDOT": 0}, "tle": {"line1": "1 36261U 99025DWN 25353.45883315  .00000380  00000+0  49964-3 0  9993", "line2": "2 36261 101.3649 246.5536 0355696  59.6620 303.9183 13.45486204845233"}}, "geometry": {"type": "Point", "coordinates": [-95.6882335199002, -54.30388947598575]}}, {"type": "Feature", "properties": {"norad_id": 36262, "name": "FENGYUN 1C DEB", "group": "fengyun-1c-debris", "lat": -21.403656945531598, "lon": 51.953227183419735, "alt_km": 776.6539574876706, "timestamp": "2025-12-20T18:51:32.002422+00:00", "meta": {"OBJECT_NAME": "FENGYUN 1C DEB", "OBJECT_ID": "1999-025DWP", "EPOCH": "2025-12-20T09:30:11.047680", "MEAN_MOTION": 14.27815477, "ECCENTRICITY": 0.00597653, "INCLINATION": 98.9612, "RA_OF_ASC_NODE": 235.0995, "ARG_OF_PERICENTER": 252.8725, "MEAN_ANOMALY": 106.5905, "EPHEMERIS_TYPE": 0, "CLASSIFICATION_TYPE": "U", "NORAD_CAT_ID": 36262, "ELEMENT_SET_NO": 999, "REV_AT_EPOCH": 89606, "BSTAR": 0.00020370681, "MEAN_MOTION_DOT": 4.66e-06, "MEAN_MOTION_DDOT": 0}, "tle": {"line1": "1 36262U 99025DWP 25354.39596120  .00000466  00000+0  20371-3 0  9999", "line2": "2 36262  98.9612 235.0995 0059765 252.8725 106.5905 14.27815477896063"}}, "geometry": {"type": "Point", "coordinates": [51.953227183419735, -21.403656945531598]}}, {"type": "Feature", "properties": {"norad_id": 36263, "name": "FENGYUN 1C DEB", "group": "fengyun-1c-debris", "lat": 9.977168703484129, "lon": 57.92144865403616, "alt_km": 732.7336439489882, "timestamp": "2025-12-20T18:51:32.002432+00:00", "meta": {"OBJECT_NAME": "FENGYUN 1C DEB", "OBJECT_ID": "1999-025DWQ", "EPOCH": "2025-12-19T15:29:46.814208", "MEAN_MOTION": 14.45721747, "ECCENTRICITY": 0.00358298, "INCLINATION": 99.002, "RA_OF_ASC_NODE": 235.1146, "ARG_OF_PERICENTER": 244.0353, "MEAN_ANOMALY": 115.7144, "EPHEMERIS_TYPE": 0, "CLASSIFICATION_TYPE": "U", "NORAD_CAT_ID": 36263, "ELEMENT_SET_NO": 999, "REV_AT_EPOCH": 88085, "BSTAR": 0.0011248307, "MEAN_MOTION_DOT": 3.967e-05, "MEAN_MOTION_DDOT": 0}, "tle": {"line1": "1 36263U 99025DWQ 25353.64568072  .00003967  00000+0  11248-2 0  9993", "line2": "2 36263  99.0020 235.1146 0035829 244.0353 115.7144 14.45721747880856"}}, "geometry": {"type": "Point", "coordinates": [57.92144865403616, 9.977168703484129]}}, {"type": "Feature", "properties": {"norad_id": 36267, "name": "FENGYUN 1C DEB", "group": "fengyun-1c-debris", "lat": 48.810209558495934, "lon": -68.13304422719804, "alt_km": 925.3168747808713, "timestamp": "2025-12-20T18:51:32.002442+00:00", "meta": {"OBJECT_NAME": "FENGYUN 1C DEB", "OBJECT_ID": "1999-025DWU", "EPOCH": "2025-12-17T02:18:42.156000", "MEAN_MOTION": 14.09111328, "ECCENTRICITY": 0.0126413, "INCLINATION": 98.559, "RA_OF_ASC_NODE": 298.2704, "ARG_OF_PERICENTER": 197.9977, "MEAN_ANOMALY": 227.0895, "EPHEMERIS_TYPE": 0, "CLASSIFICATION_TYPE": "U", "NORAD_CAT_ID": 36267, "ELEMENT_SET_NO": 999, "REV_AT_EPOCH": 86591, "BSTAR": 0.00083999853, "MEAN_MOTION_DOT": 1.528e-05, "MEAN_MOTION_DDOT": 0}, "tle": {"line1": "1 36267U 99025DWU 25351.09632125  .00001528  00000+0  84000-3 0  9993", "line2": "2 36267  98.5590 298.2704 0126413 197.9977 227.0895 14.09111328865912"}}, "geometry": {"type": "Point", "coordinates": [-68.13304422719804, 48.810209558495934]}}, {"type": "Feature", "properties": {"norad_id": 36269, "name": "FENGYUN 1C DEB", "group": "fengyun-1c-debris", "lat": -34.64761926600209, "lon": -56.55174637396823, "alt_km": 742.6150309958339, "timestamp": "2025-12-20T18:51:32.002452+00:00", "meta": {"OBJECT_NAME": "FENGYUN 1C DEB", "OBJECT_ID": "1999-025DWW", "EPOCH": "2025-12-14T01:28:51.707712", "MEAN_MOTION": 14.27043075, "ECCENTRICITY": 0.02331074, "INCLINATION": 99.1079, "RA_OF_ASC_NODE": 290.0784, "ARG_OF_PERICENTER": 275.9651, "MEAN_ANOMALY": 81.5008, "EPHEMERIS_TYPE": 0, "CLASSIFICATION_TYPE": "U", "NORAD_CAT_ID": 36269, "ELEMENT_SET_NO": 999, "REV_AT_EPOCH": 87735, "BSTAR": 0.00079666975, "MEAN_MOTION_DOT": 2.532e-05, "MEAN_MOTION_DDOT": 0}, "tle": {"line1": "1 36269U 99025DWW 25348.06170958  .00002532  00000+0  79667-3 0  9998", "line2": "2 36269  99.1079 290.0784 0233107 275.9651  81.5008 14.27043075877359"}}, "geometry": {"type": "Point", "coordinates": [-56.55174637396823, -34.64761926600209]}}, {"type": "Feature", "properties": {"norad_id": 36272, "name": "FENGYUN 1C DEB", "group": "fengyun-1c-debris", "lat": 55.661668862887645, "lon": 64.9239900727485, "alt_km": 892.2042281214926, "timestamp": "2025-12-20T18:51:32.002462+00:00", "meta": {"OBJECT_NAME": "FENGYUN 1C DEB", "OBJECT_ID": "1999-025DWZ", "EPOCH": "2025-12-15T09:29:34.780416", "MEAN_MOTION": 14.17259115, "ECCENTRICITY": 0.01679127, "INCLINATION": 99.1362, "RA_OF_ASC_NODE": 225.7589, "ARG_OF_PERICENTER": 260.5869, "MEAN_ANOMALY": 97.6289, "EPHEMERIS_TYPE": 0, "CLASSIFICATION_TYPE": "U", "NORAD_CAT_ID": 36272, "ELEMENT_SET_NO": 999, "REV_AT_EPOCH": 63654, "BSTAR": 0.00052291356, "MEAN_MOTION_DOT": 1.164e-05, "MEAN_MOTION_DDOT": 0}, "tle": {"line1": "1 36272U 99025DWZ 25349.39554144  .00001164  00000+0  52291-3 0  9996", "line2": "2 36272  99.1362 225.7589 0167912 260.5869  97.6289 14.17259115636543"}}, "geometry": {"type": "Point", "coordinates": [64.9239900727485, 55.661668862887645]}}, {"type": "Feature", "properties": {"norad_id": 36273, "name": "FENGYUN 1C DEB", "group": "fengyun-1c-debris", "lat": 80.38784458581578, "lon": 133.79058350535092, "alt_km": 867.8588362929495, "timestamp": "2025-12-20T18:51:32.002472+00:00", "meta": {"OBJECT_NAME": "FENGYUN 1C DEB", "OBJECT_ID": "1999-025DXA", "EPOCH": "2025-12-10T21:07:00.418080", "MEAN_MOTION": 14.16564043, "ECCENTRICITY": 0.0096501, "INCLINATION": 99.6045, "RA_OF_ASC_NODE": 214.1863, "ARG_OF_PERICENTER": 353.8475, "MEAN_ANOMALY": 6.1504, "EPHEMERIS_TYPE": 0, "CLASSIFICATION_TYPE": "U", "NORAD_CAT_ID": 36273, "ELEMENT_SET_NO": 999, "REV_AT_EPOCH": 66207, "BSTAR": 0.00042955, "MEAN_MOTION_DOT": 8.45e-06, "MEAN_MOTION_DDOT": 0}, "tle": {"line1": "1 36273U 99025DXA 25344.87986595  .00000845  00000+0  42955-3 0  9995", "line2": "2 36273  99.6045 214.1863 0096501 353.8475   6.1504 14.16564043662078"}}, "geometry": {"type": "Point", "coordinates": [133.79058350535092, 80.38784458581578]}}, {"type": "Feature", "properties": {"norad_id": 36274, "name": "FENGYUN 1C DEB", "group": "fengyun-1c-debris", "lat": -54.17784539352757, "lon": 82.14111022907802, "alt_km": 825.466739421413, "timestamp": "2025-12-20T18:51:32.002482+00:00", "meta": {"OBJECT_NAME": "FENGYUN 1C DEB", "OBJECT_ID": "1999-025DXB", "EPOCH": "2025-12-17T22:47:53.566656", "MEAN_MOTION": 14.23538115, "ECCENTRICITY": 0.00628177, "INCLINATION": 99.1393, "RA_OF_ASC_NODE": 66.31, "ARG_OF_PERICENTER": 216.0031, "MEAN_ANOMALY": 323.0496, "EPHEMERIS_TYPE": 0, "CLASSIFICATION_TYPE": "U", "NORAD_CAT_ID": 36274, "ELEMENT_SET_NO": 999, "REV_AT_EPOCH": 63059, "BSTAR": 0.0023477319, "MEAN_MOTION_DOT": 5.408e-05, "MEAN_MOTION_DDOT": 0}, "tle": {"line1": "1 36274U 99025DXB 25351.94992554  .00005408  00000+0  23477-2 0  9991", "line2": "2 36274  99.1393  66.3100 0062817 216.0031 323.0496 14.23538115630594"}}, "geometry": {"type": "Point", "coordinates": [82.14111022907802, -54.17784539352757]}}]}